{
    "links": {
        "self": "http://www.neowsapp.com/rest/v1/neo/3673134?api_key=iIulBulltgU6a56xZRHN4H3l9WmuAYTsLGpBGhQ2"
    },
    "id": "3673134",
    "neo_reference_id": "3673134",
    "name": "(2014 KW86)",
    "designation": "2014 KW86",
    "nasa_jpl_url": "http://ssd.jpl.nasa.gov/sbdb.cgi?sstr=3673134",
    "absolute_magnitude_h": 23.7,
    "estimated_diameter": {
        "kilometers": {
            "estimated_diameter_min": 0.0483676488,
            "estimated_diameter_max": 0.1081533507
        },
        "meters": {
            "estimated_diameter_min": 48.3676488219,
            "estimated_diameter_max": 108.1533506775
        },
        "miles": {
            "estimated_diameter_min": 0.0300542543,
            "estimated_diameter_max": 0.0672033557
        },
        "feet": {
            "estimated_diameter_min": 158.6865169607,
            "estimated_diameter_max": 354.8338390368
        }
    },
    "is_potentially_hazardous_asteroid": false,
    "close_approach_data": [
        {
            "close_approach_date": "2014-05-26",
            "close_approach_date_full": "2014-May-26 07:01",
            "epoch_date_close_approach": 1401087660000,
            "relative_velocity": {
                "kilometers_per_second": "3.9670557878",
                "kilometers_per_hour": "14281.4008359841",
                "miles_per_hour": "8873.9070916702"
            },
            "miss_distance": {
                "astronomical": "0.2514296143",
                "lunar": "97.8061199627",
                "kilometers": "37613334.754201541",
                "miles": "23371842.4495256258"
            },
            "orbiting_body": "Earth"
        }
    ],
    "orbital_data": {
        "orbit_id": "7",
        "orbit_determination_date": "2017-04-06 08:40:13",
        "first_observation_date": "2014-05-28",
        "last_observation_date": "2014-07-01",
        "data_arc_in_days": 34,
        "observations_used": 15,
        "orbit_uncertainty": "6",
        "minimum_orbit_intersection": ".250546",
        "jupiter_tisserand_invariant": "3.563",
        "epoch_osculation": "2459000.5",
        "eccentricity": ".4195777517563431",
        "semi_major_axis": "2.169446634926079",
        "inclination": "6.555248945875335",
        "ascending_node_longitude": "224.2259030054794",
        "orbital_period": "1167.137126918486",
        "perihelion_distance": "1.259195093288431",
        "perihelion_argument": "22.86255903968231",
        "aphelion_distance": "3.079698176563728",
        "perihelion_time": "2459141.643602353166",
        "mean_anomaly": "316.4646726804976",
        "mean_motion": ".3084470467925942",
        "equinox": "J2000",
        "orbit_class": {
            "orbit_class_type": "AMO",
            "orbit_class_description": "Near-Earth asteroid orbits similar to that of 1221 Amor",
            "orbit_class_range": "1.017 AU < q (perihelion) < 1.3 AU"
        }
    },
    "is_sentry_object": false
}